{
  "type": "FeatureCollection",
  "features": [
    { "type": "Feature", "properties": { "id": "canal-suitang", "period": "suitang", "name_zh": "隋唐大运河", "name_en": "Grand Canal (Sui-Tang)" },
      "geometry": { "type": "LineString", "coordinates": [[116.5,39.5],[115.0,39.0],[114.0,38.0],[113.5,37.0],[113.0,36.2],[114.5,35.5],[116.0,34.9],[117.0,34.7],[118.0,34.5],[119.0,34.0],[119.5,33.5],[119.3,32.7],[119.4,32.3],[119.5,31.7],[120.0,31.2],[120.5,30.5],[120.8,30.2]] } },
    { "type": "Feature", "properties": { "id": "canal-jinghang", "period": "yuanmingqing", "name_zh": "京杭大运河", "name_en": "Grand Canal (Beijing-Hangzhou)" },
      "geometry": { "type": "LineString", "coordinates": [[116.6,39.9],[116.8,39.4],[117.2,39.1],[116.5,38.3],[116.2,37.7],[116.0,37.0],[115.8,36.6],[116.4,36.2],[116.8,35.8],[116.8,35.2],[117.2,34.6],[117.5,34.2],[117.9,33.8],[118.3,33.6],[118.7,33.2],[119.0,32.9],[119.3,32.6],[119.4,32.2],[119.5,31.8],[120.0,31.3],[120.5,30.7],[120.6,30.4]] } }
  ]
}
