{
  "type": "FeatureCollection",
  "features": [
    { "type": "Feature", "properties": { "id": "xian", "name_zh": "西安", "name_en": "Xi'an", "period": ["qinhan","sanguo","suitang","songliaojin","yuanmingqing"], "ancient": { "qinhan": { "zh": "长安", "en": "Chang'an" }, "sanguo": { "zh": "长安", "en": "Chang'an" }, "suitang": { "zh": "长安", "en": "Chang'an" }, "songliaojin": { "zh": "长安", "en": "Chang'an" }, "yuanmingqing": { "zh": "西安", "en": "Xi'an" } } }, "geometry": { "type": "Point", "coordinates": [108.94, 34.34] } },
    { "type": "Feature", "properties": { "id": "beijing", "name_zh": "北京", "name_en": "Beijing", "period": ["qinhan","sanguo","suitang","songliaojin","yuanmingqing"], "ancient": { "qinhan": { "zh": "蓟", "en": "Ji" }, "sanguo": { "zh": "蓟", "en": "Ji" }, "suitang": { "zh": "幽州", "en": "Youzhou" }, "songliaojin": { "zh": "燕京·中都", "en": "Yanjing·Zhongdu" }, "yuanmingqing": { "zh": "大都·北京", "en": "Dadu·Beijing" } } }, "geometry": { "type": "Point", "coordinates": [116.41, 39.9] } },
    { "type": "Feature", "properties": { "id": "luoyang", "name_zh": "洛阳", "name_en": "Luoyang", "period": ["qinhan","sanguo","suitang","songliaojin","yuanmingqing"], "ancient": { "qinhan": { "zh": "雒阳", "en": "Luoyang" }, "sanguo": { "zh": "洛阳", "en": "Luoyang" }, "suitang": { "zh": "东都·洛阳", "en": "Eastern Capital" }, "songliaojin": { "zh": "西京", "en": "Western Capital" }, "yuanmingqing": { "zh": "洛阳", "en": "Luoyang" } } }, "geometry": { "type": "Point", "coordinates": [112.45, 34.62] } },
    { "type": "Feature", "properties": { "id": "nanjing", "name_zh": "南京", "name_en": "Nanjing", "period": ["qinhan","sanguo","suitang","songliaojin","yuanmingqing"], "ancient": { "qinhan": { "zh": "秣陵", "en": "Muling" }, "sanguo": { "zh": "建业", "en": "Jianye" }, "suitang": { "zh": "金陵", "en": "Jinling" }, "songliaojin": { "zh": "建康", "en": "Jiankang" }, "yuanmingqing": { "zh": "应天·南京", "en": "Yingtian·Nanjing" } } }, "geometry": { "type": "Point", "coordinates": [118.8, 32.06] } },
    { "type": "Feature", "properties": { "id": "kaifeng", "name_zh": "开封", "name_en": "Kaifeng", "period": ["qinhan","sanguo","suitang","songliaojin","yuanmingqing"], "ancient": { "qinhan": { "zh": "大梁", "en": "Daliang" }, "sanguo": { "zh": "开封", "en": "Kaifeng" }, "suitang": { "zh": "汴州", "en": "Bianzhou" }, "songliaojin": { "zh": "汴京·东京", "en": "Bianjing·Dongjing" }, "yuanmingqing": { "zh": "开封", "en": "Kaifeng" } } }, "geometry": { "type": "Point", "coordinates": [114.35, 34.8] } },
    { "type": "Feature", "properties": { "id": "hangzhou", "name_zh": "杭州", "name_en": "Hangzhou", "period": ["qinhan","sanguo","suitang","songliaojin","yuanmingqing"], "ancient": { "qinhan": { "zh": "钱塘", "en": "Qiantang" }, "sanguo": { "zh": "钱塘", "en": "Qiantang" }, "suitang": { "zh": "杭州", "en": "Hangzhou" }, "songliaojin": { "zh": "临安", "en": "Lin'an" }, "yuanmingqing": { "zh": "杭州", "en": "Hangzhou" } } }, "geometry": { "type": "Point", "coordinates": [120.15, 30.28] } },
    { "type": "Feature", "properties": { "id": "anyang", "name_zh": "安阳", "name_en": "Anyang", "period": ["qinhan","sanguo","suitang","songliaojin","yuanmingqing"], "ancient": { "qinhan": { "zh": "安阳", "en": "Anyang" }, "sanguo": { "zh": "邺城", "en": "Yecheng" }, "suitang": { "zh": "相州", "en": "Xiangzhou" }, "songliaojin": { "zh": "安阳", "en": "Anyang" }, "yuanmingqing": { "zh": "彰德府", "en": "Zhangde" } } }, "geometry": { "type": "Point", "coordinates": [114.35, 36.1] } },
    { "type": "Feature", "properties": { "id": "chengdu", "name_zh": "成都", "name_en": "Chengdu", "period": ["qinhan","sanguo","suitang","songliaojin","yuanmingqing"], "ancient": { "qinhan": { "zh": "蜀郡", "en": "Shu Commandery" }, "sanguo": { "zh": "成都", "en": "Chengdu" }, "suitang": { "zh": "益州", "en": "Yizhou" }, "songliaojin": { "zh": "成都府", "en": "Chengdu" }, "yuanmingqing": { "zh": "成都", "en": "Chengdu" } } }, "geometry": { "type": "Point", "coordinates": [104.07, 30.66] } },
    { "type": "Feature", "properties": { "id": "suzhou", "name_zh": "苏州", "name_en": "Suzhou", "period": ["qinhan","sanguo","suitang","songliaojin","yuanmingqing"], "ancient": { "qinhan": { "zh": "吴", "en": "Wu" }, "sanguo": { "zh": "吴", "en": "Wu" }, "suitang": { "zh": "苏州", "en": "Suzhou" }, "songliaojin": { "zh": "平江府", "en": "Pingjiang" }, "yuanmingqing": { "zh": "苏州", "en": "Suzhou" } } }, "geometry": { "type": "Point", "coordinates": [120.59, 31.3] } },
    { "type": "Feature", "properties": { "id": "yangzhou", "name_zh": "扬州", "name_en": "Yangzhou", "period": ["qinhan","sanguo","suitang","songliaojin","yuanmingqing"], "ancient": { "qinhan": { "zh": "广陵", "en": "Guangling" }, "sanguo": { "zh": "广陵", "en": "Guangling" }, "suitang": { "zh": "江都", "en": "Jiangdu" }, "songliaojin": { "zh": "扬州", "en": "Yangzhou" }, "yuanmingqing": { "zh": "扬州", "en": "Yangzhou" } } }, "geometry": { "type": "Point", "coordinates": [119.41, 32.39] } },
    { "type": "Feature", "properties": { "id": "shaoxing", "name_zh": "绍兴", "name_en": "Shaoxing", "period": ["qinhan","sanguo","suitang","songliaojin","yuanmingqing"], "ancient": { "qinhan": { "zh": "会稽", "en": "Kuaiji" }, "sanguo": { "zh": "会稽", "en": "Kuaiji" }, "suitang": { "zh": "越州", "en": "Yuezhou" }, "songliaojin": { "zh": "越州·绍兴", "en": "Yuezhou·Shaoxing" }, "yuanmingqing": { "zh": "绍兴", "en": "Shaoxing" } } }, "geometry": { "type": "Point", "coordinates": [120.58, 30.01] } },
    { "type": "Feature", "properties": { "id": "jingzhou", "name_zh": "荆州", "name_en": "Jingzhou", "period": ["qinhan","sanguo","suitang","songliaojin","yuanmingqing"], "ancient": { "qinhan": { "zh": "江陵", "en": "Jiangling" }, "sanguo": { "zh": "江陵", "en": "Jiangling" }, "suitang": { "zh": "荆州", "en": "Jingzhou" }, "songliaojin": { "zh": "江陵府", "en": "Jiangling" }, "yuanmingqing": { "zh": "荆州", "en": "Jingzhou" } } }, "geometry": { "type": "Point", "coordinates": [112.24, 30.33] } },
    { "type": "Feature", "properties": { "id": "xiangyang", "name_zh": "襄阳", "name_en": "Xiangyang", "period": ["qinhan","sanguo","suitang","songliaojin","yuanmingqing"], "ancient": { "qinhan": { "zh": "襄阳", "en": "Xiangyang" }, "sanguo": { "zh": "襄阳", "en": "Xiangyang" }, "suitang": { "zh": "襄州", "en": "Xiangzhou" }, "songliaojin": { "zh": "襄阳府", "en": "Xiangyang" }, "yuanmingqing": { "zh": "襄阳", "en": "Xiangyang" } } }, "geometry": { "type": "Point", "coordinates": [112.12, 32.01] } },
    { "type": "Feature", "properties": { "id": "datong", "name_zh": "大同", "name_en": "Datong", "period": ["qinhan","sanguo","suitang","songliaojin","yuanmingqing"], "ancient": { "qinhan": { "zh": "平城", "en": "Pingcheng" }, "sanguo": { "zh": "平城", "en": "Pingcheng" }, "suitang": { "zh": "云州", "en": "Yunzhou" }, "songliaojin": { "zh": "大同", "en": "Datong" }, "yuanmingqing": { "zh": "大同", "en": "Datong" } } }, "geometry": { "type": "Point", "coordinates": [113.3, 40.08] } },
    { "type": "Feature", "properties": { "id": "quanzhou", "name_zh": "泉州", "name_en": "Quanzhou", "period": ["suitang","songliaojin","yuanmingqing"], "ancient": { "suitang": { "zh": "泉州", "en": "Quanzhou" }, "songliaojin": { "zh": "刺桐", "en": "Zayton" }, "yuanmingqing": { "zh": "刺桐·泉州", "en": "Zayton·Quanzhou" } } }, "geometry": { "type": "Point", "coordinates": [118.68, 24.87] } },
    { "type": "Feature", "properties": { "id": "guangzhou", "name_zh": "广州", "name_en": "Guangzhou", "period": ["qinhan","sanguo","suitang","songliaojin","yuanmingqing"], "ancient": { "qinhan": { "zh": "番禺", "en": "Panyu" }, "sanguo": { "zh": "番禺", "en": "Panyu" }, "suitang": { "zh": "广州", "en": "Guangzhou" }, "songliaojin": { "zh": "广州", "en": "Guangzhou" }, "yuanmingqing": { "zh": "广州", "en": "Guangzhou" } } }, "geometry": { "type": "Point", "coordinates": [113.26, 23.13] } },
    { "type": "Feature", "properties": { "id": "shanghai", "name_zh": "上海", "name_en": "Shanghai", "period": ["yuanmingqing"], "ancient": { "yuanmingqing": { "zh": "上海县", "en": "Shanghai County" } } }, "geometry": { "type": "Point", "coordinates": [121.47, 31.23] } },
    { "type": "Feature", "properties": { "id": "jiujiang", "name_zh": "九江", "name_en": "Jiujiang", "period": ["qinhan","sanguo","suitang","songliaojin","yuanmingqing"], "ancient": { "qinhan": { "zh": "浔阳", "en": "Xunyang" }, "sanguo": { "zh": "浔阳", "en": "Xunyang" }, "suitang": { "zh": "江州", "en": "Jiangzhou" }, "songliaojin": { "zh": "江州", "en": "Jiangzhou" }, "yuanmingqing": { "zh": "九江", "en": "Jiujiang" } } }, "geometry": { "type": "Point", "coordinates": [116.0, 29.71] } },
    { "type": "Feature", "properties": { "id": "qufu", "name_zh": "曲阜", "name_en": "Qufu", "period": ["qinhan","sanguo","suitang","songliaojin","yuanmingqing"], "ancient": { "qinhan": { "zh": "鲁", "en": "Lu" }, "sanguo": { "zh": "鲁", "en": "Lu" }, "suitang": { "zh": "兖州", "en": "Yanzhou" }, "songliaojin": { "zh": "仙源", "en": "Xianyuan" }, "yuanmingqing": { "zh": "曲阜", "en": "Qufu" } } }, "geometry": { "type": "Point", "coordinates": [116.99, 35.58] } },
    { "type": "Feature", "properties": { "id": "dunhuang", "name_zh": "敦煌", "name_en": "Dunhuang", "period": ["qinhan","sanguo","suitang","songliaojin","yuanmingqing"], "ancient": { "qinhan": { "zh": "敦煌", "en": "Dunhuang" }, "sanguo": { "zh": "敦煌", "en": "Dunhuang" }, "suitang": { "zh": "沙州", "en": "Shazhou" }, "songliaojin": { "zh": "沙州", "en": "Shazhou" }, "yuanmingqing": { "zh": "敦煌", "en": "Dunhuang" } } }, "geometry": { "type": "Point", "coordinates": [94.66, 40.14] } },
    { "type": "Feature", "properties": { "id": "kashgar", "name_zh": "喀什", "name_en": "Kashgar", "period": ["qinhan","sanguo","suitang","songliaojin","yuanmingqing"], "ancient": { "qinhan": { "zh": "疏勒", "en": "Shule" }, "sanguo": { "zh": "疏勒", "en": "Shule" }, "suitang": { "zh": "疏勒", "en": "Shule" }, "songliaojin": { "zh": "喀什噶尔", "en": "Kashgar" }, "yuanmingqing": { "zh": "喀什噶尔", "en": "Kashgar" } } }, "geometry": { "type": "Point", "coordinates": [75.99, 39.47] } },
    { "type": "Feature", "properties": { "id": "guilin", "name_zh": "桂林", "name_en": "Guilin", "period": ["qinhan","sanguo","suitang","songliaojin","yuanmingqing"], "ancient": { "qinhan": { "zh": "始安", "en": "Shi'an" }, "sanguo": { "zh": "始安", "en": "Shi'an" }, "suitang": { "zh": "桂州", "en": "Guizhou" }, "songliaojin": { "zh": "静江府", "en": "Jingjiang" }, "yuanmingqing": { "zh": "桂林", "en": "Guilin" } } }, "geometry": { "type": "Point", "coordinates": [110.29, 25.27] } },
    { "type": "Feature", "properties": { "id": "lijiang", "name_zh": "丽江", "name_en": "Lijiang", "period": ["yuanmingqing"], "ancient": { "yuanmingqing": { "zh": "丽江府", "en": "Lijiang Prefecture" } } }, "geometry": { "type": "Point", "coordinates": [100.23, 26.86] } },
    { "type": "Feature", "properties": { "id": "dali", "name_zh": "大理", "name_en": "Dali", "period": ["suitang","songliaojin","yuanmingqing"], "ancient": { "suitang": { "zh": "太和城", "en": "Taihe City" }, "songliaojin": { "zh": "大理国都", "en": "Dali Kingdom Capital" }, "yuanmingqing": { "zh": "大理", "en": "Dali" } } }, "geometry": { "type": "Point", "coordinates": [100.23, 25.61] } },
    { "type": "Feature", "properties": { "id": "lasa", "name_zh": "拉萨", "name_en": "Lhasa", "period": ["suitang","songliaojin","yuanmingqing"], "ancient": { "suitang": { "zh": "逻些", "en": "Luoxie" }, "songliaojin": { "zh": "逻些", "en": "Luoxie" }, "yuanmingqing": { "zh": "拉萨", "en": "Lhasa" } } }, "geometry": { "type": "Point", "coordinates": [91.11, 29.65] } },
    { "type": "Feature", "properties": { "id": "zhangjiajie", "name_zh": "张家界", "name_en": "Zhangjiajie", "period": ["yuanmingqing"], "ancient": { "yuanmingqing": { "zh": "大庸", "en": "Dayong" } } }, "geometry": { "type": "Point", "coordinates": [110.48, 29.12] } },
    { "type": "Feature", "properties": { "id": "huangshan", "name_zh": "黄山", "name_en": "Huangshan", "period": ["qinhan","sanguo","suitang","songliaojin","yuanmingqing"], "ancient": { "qinhan": { "zh": "新安", "en": "Xin'an" }, "sanguo": { "zh": "新都郡", "en": "Xindu" }, "suitang": { "zh": "歙州", "en": "Shezhou" }, "songliaojin": { "zh": "徽州", "en": "Huizhou" }, "yuanmingqing": { "zh": "徽州", "en": "Huizhou" } } }, "geometry": { "type": "Point", "coordinates": [118.34, 29.71] } }
  ]
}
