{
  "type": "FeatureCollection",
  "features": [
    { "type": "Feature", "properties": { "id": "unify-qin", "period": "qinhan" }, "geometry": { "type": "Point", "coordinates": [111.6, 35.6] } },
    { "type": "Feature", "properties": { "id": "burn-books", "period": "qinhan" }, "geometry": { "type": "Point", "coordinates": [111.3, 33.2] } },
    { "type": "Feature", "properties": { "id": "chenshe-uprising", "period": "qinhan" }, "geometry": { "type": "Point", "coordinates": [117.0, 33.5] } },
    { "type": "Feature", "properties": { "id": "zhangqian", "period": "qinhan" }, "geometry": { "type": "Point", "coordinates": [105.7, 34.9] } },
    { "type": "Feature", "properties": { "id": "silkroad-open", "period": "qinhan" }, "geometry": { "type": "Point", "coordinates": [93.3, 41.0] } },
    { "type": "Feature", "properties": { "id": "guandu", "period": "sanguo" }, "geometry": { "type": "Point", "coordinates": [114.0, 34.7] } },
    { "type": "Feature", "properties": { "id": "chibi", "period": "sanguo" }, "geometry": { "type": "Point", "coordinates": [113.6, 29.8] } },
    { "type": "Feature", "properties": { "id": "yiling", "period": "sanguo" }, "geometry": { "type": "Point", "coordinates": [111.3, 30.7] } },
    { "type": "Feature", "properties": { "id": "feishui", "period": "sanguo" }, "geometry": { "type": "Point", "coordinates": [116.8, 32.6] } },
    { "type": "Feature", "properties": { "id": "xiaowen-move", "period": "sanguo" }, "geometry": { "type": "Point", "coordinates": [109.8, 35.8] } },
    { "type": "Feature", "properties": { "id": "grand-canal", "period": "suitang" }, "geometry": { "type": "Point", "coordinates": [117.9, 36.6] } },
    { "type": "Feature", "properties": { "id": "zhenguan", "period": "suitang" }, "geometry": { "type": "Point", "coordinates": [108.94, 36.0] } },
    { "type": "Feature", "properties": { "id": "xuanzang", "period": "suitang" }, "geometry": { "type": "Point", "coordinates": [107.3, 34.0] } },
    { "type": "Feature", "properties": { "id": "anshi", "period": "suitang" }, "geometry": { "type": "Point", "coordinates": [119.0, 40.0] } },
    { "type": "Feature", "properties": { "id": "huangchao", "period": "suitang" }, "geometry": { "type": "Point", "coordinates": [111.0, 33.1] } },
    { "type": "Feature", "properties": { "id": "chanyuan", "period": "songliaojin" }, "geometry": { "type": "Point", "coordinates": [115.0, 35.8] } },
    { "type": "Feature", "properties": { "id": "jingkang", "period": "songliaojin" }, "geometry": { "type": "Point", "coordinates": [117.5, 36.8] } },
    { "type": "Feature", "properties": { "id": "yuefei", "period": "songliaojin" }, "geometry": { "type": "Point", "coordinates": [111.4, 34.1] } },
    { "type": "Feature", "properties": { "id": "maritime-peak", "period": "songliaojin" }, "geometry": { "type": "Point", "coordinates": [117.5, 23.6] } },
    { "type": "Feature", "properties": { "id": "yashan", "period": "songliaojin" }, "geometry": { "type": "Point", "coordinates": [113.1, 22.4] } },
    { "type": "Feature", "properties": { "id": "kublai-yuan", "period": "yuanmingqing" }, "geometry": { "type": "Point", "coordinates": [119.6, 40.2] } },
    { "type": "Feature", "properties": { "id": "zhenghe", "period": "yuanmingqing" }, "geometry": { "type": "Point", "coordinates": [122.3, 31.9] } },
    { "type": "Feature", "properties": { "id": "tumubao", "period": "yuanmingqing" }, "geometry": { "type": "Point", "coordinates": [115.5, 40.4] } },
    { "type": "Feature", "properties": { "id": "yakesa", "period": "yuanmingqing" }, "geometry": { "type": "Point", "coordinates": [127.3, 53.5] } },
    { "type": "Feature", "properties": { "id": "humen", "period": "yuanmingqing" }, "geometry": { "type": "Point", "coordinates": [113.7, 22.8] } }
  ]
}
