{
  "type": "FeatureCollection",
  "features": [
    { "type": "Feature",
      "properties": { "id": "han", "period": "qinhan", "name_zh": "汉", "name_en": "Han Empire", "color": "#9c4a3a" },
      "geometry": { "type": "Polygon", "coordinates": [[
        [121.5,41.5],[125.5,40.6],[127.2,39.6],[126.6,38.9],[124.6,39.8],[122.2,39.1],[119.5,40.0],[118.5,39.7],[117.7,39.0],[118.0,38.5],[119.5,37.5],[119.3,36.0],[119.5,34.5],[120.2,33.2],[120.8,32.0],[121.8,31.0],[121.0,30.5],[120.5,28.5],[120.0,26.0],[119.0,24.5],[117.5,23.5],[116.0,23.0],[114.5,22.8],[113.5,22.2],[112.0,21.8],[111.0,21.5],[110.0,20.8],[109.5,19.5],[108.5,19.5],[107.5,20.5],[106.5,21.0],[105.5,21.8],[104.5,22.5],[105.0,23.0],[105.5,23.8],[106.0,24.8],[106.3,25.5],[105.5,26.3],[104.5,26.8],[103.5,27.2],[102.5,27.8],[101.5,29.0],[100.3,30.0],[98.5,30.8],[96.5,31.5],[94.5,32.2],[92.5,32.8],[90.0,33.5],[87.5,34.2],[85.0,34.8],[83.0,35.2],[80.5,35.5],[78.0,35.8],[76.0,37.0],[74.5,38.0],[73.5,39.5],[74.0,40.5],[76.0,42.0],[80.0,42.8],[83.0,43.5],[86.0,43.0],[90.0,42.0],[95.0,42.8],[97.5,42.0],[100.8,40.5],[104.2,40.0],[106.8,40.2],[108.5,40.5],[110.5,41.0],[113.8,40.8],[117.5,39.2],[121.5,41.5]
      ]] } },
    { "type": "Feature",
      "properties": { "id": "wei", "period": "sanguo", "name_zh": "魏", "name_en": "Cao Wei", "color": "#4a6b8a" },
      "geometry": { "type": "Polygon", "coordinates": [[
        [104.0,40.5],[108.5,40.5],[110.5,41.0],[113.8,40.8],[117.5,39.2],[119.5,40.0],[121.5,41.5],[125.5,40.6],[127.2,39.6],[126.6,38.9],[124.6,39.8],[122.2,39.1],[121.0,37.5],[120.0,36.5],[119.0,35.0],[117.0,34.0],[116.5,33.0],[116.5,32.5],[114.0,33.0],[113.5,32.5],[112.0,32.0],[111.0,32.0],[110.0,31.5],[109.5,32.0],[108.5,32.5],[107.0,33.5],[106.5,34.5],[105.5,35.5],[104.0,37.0],[103.0,38.0],[104.0,40.5]
      ]] } },
    { "type": "Feature",
      "properties": { "id": "shu", "period": "sanguo", "name_zh": "蜀", "name_en": "Shu Han", "color": "#7a9a5e" },
      "geometry": { "type": "Polygon", "coordinates": [[
        [102.5,33.0],[104.5,32.8],[106.0,32.0],[107.0,31.5],[108.0,31.0],[108.5,30.0],[108.0,29.0],[107.0,28.5],[106.0,28.0],[105.0,27.5],[104.5,26.8],[103.5,26.2],[103.0,25.5],[102.5,24.8],[101.5,24.5],[100.5,24.8],[99.5,25.5],[99.0,26.5],[98.5,27.5],[99.0,28.5],[100.0,29.5],[101.0,30.5],[101.8,31.5],[102.5,33.0]
      ]] } },
    { "type": "Feature",
      "properties": { "id": "wu", "period": "sanguo", "name_zh": "吴", "name_en": "Eastern Wu", "color": "#b08a3e" },
      "geometry": { "type": "Polygon", "coordinates": [[
        [116.5,32.5],[117.0,33.5],[118.0,33.8],[119.5,33.5],[120.2,33.2],[120.8,32.0],[121.8,31.0],[121.0,30.5],[120.5,28.5],[120.0,26.0],[119.0,24.5],[117.5,23.5],[116.0,23.0],[114.5,22.8],[113.5,22.2],[112.0,21.8],[111.0,21.5],[110.0,20.8],[109.5,19.5],[108.5,19.5],[107.5,20.5],[108.0,22.0],[109.0,23.0],[110.0,24.0],[111.0,25.0],[112.5,25.5],[113.5,26.5],[114.5,27.5],[115.5,28.5],[116.0,29.5],[116.0,30.5],[115.5,31.5],[116.5,32.5]
      ]] } },
    { "type": "Feature",
      "properties": { "id": "tang", "period": "suitang", "name_zh": "唐", "name_en": "Tang Empire", "color": "#9c4a3a" },
      "geometry": { "type": "Polygon", "coordinates": [[
        [121.5,41.5],[125.5,40.6],[127.2,39.6],[126.6,38.9],[124.6,39.8],[122.2,39.1],[119.5,40.0],[118.5,39.7],[117.7,39.0],[118.0,38.5],[119.5,37.5],[119.3,36.0],[119.5,34.5],[120.2,33.2],[120.8,32.0],[121.8,31.0],[121.0,30.5],[120.5,28.5],[120.0,26.0],[119.0,24.5],[117.5,23.5],[116.0,23.0],[114.5,22.8],[113.5,22.2],[112.0,21.8],[111.0,21.5],[110.0,20.8],[109.5,19.5],[108.5,19.5],[107.5,20.5],[106.5,21.0],[105.5,21.8],[104.5,22.5],[105.0,23.0],[105.5,23.8],[106.0,24.8],[106.3,25.5],[105.5,26.3],[104.5,26.8],[103.5,27.2],[102.5,27.8],[101.5,29.0],[100.3,30.0],[99.0,30.5],[98.0,31.0],[97.5,32.0],[97.0,33.0],[97.5,34.0],[98.5,35.0],[100.0,36.0],[101.5,37.0],[103.0,37.8],[104.5,38.2],[105.5,38.8],[106.5,39.5],[108.0,40.2],[109.5,40.8],[111.0,41.3],[112.5,41.6],[114.0,41.6],[115.5,41.4],[117.0,41.0],[118.5,40.5],[119.5,40.0],[121.0,40.0],[121.5,41.5]
      ]] } },
    { "type": "Feature",
      "properties": { "id": "north-song", "period": "songliaojin", "name_zh": "北宋", "name_en": "Northern Song", "color": "#9c4a3a" },
      "geometry": { "type": "Polygon", "coordinates": [[
        [106.5,39.0],[108.0,39.8],[109.5,40.3],[110.5,40.0],[112.0,39.5],[114.0,39.8],[115.5,39.5],[116.5,39.3],[117.5,39.0],[118.0,38.5],[119.5,37.5],[119.3,36.0],[119.5,34.5],[120.2,33.2],[120.8,32.0],[121.8,31.0],[121.0,30.5],[120.5,28.5],[120.0,26.0],[119.0,24.5],[117.5,23.5],[116.0,23.0],[114.5,22.8],[113.5,22.2],[112.0,21.8],[111.0,21.5],[110.0,20.8],[109.5,19.5],[108.5,19.5],[107.5,20.5],[106.5,21.0],[105.5,21.8],[104.5,22.5],[105.0,23.0],[105.5,23.8],[106.0,24.8],[106.3,25.5],[105.5,26.3],[104.5,26.8],[103.5,27.2],[102.5,27.8],[101.5,29.0],[100.3,30.0],[98.5,30.8],[97.0,31.0],[96.0,32.0],[95.0,33.0],[94.5,34.0],[95.5,34.8],[97.0,35.5],[98.5,36.0],[100.0,36.5],[101.5,37.0],[103.0,37.5],[104.2,37.8],[105.2,38.0],[106.5,39.0]
      ]] } },
    { "type": "Feature",
      "properties": { "id": "liao", "period": "songliaojin", "name_zh": "辽", "name_en": "Liao Dynasty", "color": "#6a7d4a" },
      "geometry": { "type": "Polygon", "coordinates": [[
        [124.5,40.5],[127.2,41.5],[129.5,42.5],[131.0,44.0],[130.5,46.5],[128.5,48.0],[126.0,49.0],[123.0,50.0],[120.0,50.5],[117.5,49.5],[116.0,48.5],[115.5,47.0],[115.0,45.5],[113.5,44.5],[112.0,43.5],[110.5,42.5],[109.5,41.5],[110.0,40.8],[112.0,40.8],[114.0,41.0],[116.0,41.3],[118.0,41.0],[120.0,41.5],[122.0,41.5],[124.5,40.5]
      ]] } },
    { "type": "Feature",
      "properties": { "id": "xixia", "period": "songliaojin", "name_zh": "西夏", "name_en": "Western Xia", "color": "#8a5a9a" },
      "geometry": { "type": "Polygon", "coordinates": [[
        [100.5,41.5],[102.5,41.0],[104.5,40.8],[105.8,40.0],[106.5,39.0],[105.5,38.0],[105.0,37.0],[104.0,36.5],[103.5,36.0],[103.0,35.5],[102.5,35.8],[101.5,36.2],[100.0,36.5],[98.5,37.0],[97.5,38.0],[97.0,39.0],[97.5,40.0],[98.5,40.8],[99.5,41.2],[100.5,41.5]
      ]] } },
    { "type": "Feature",
      "properties": { "id": "dali", "period": "songliaojin", "name_zh": "大理", "name_en": "Dali Kingdom", "color": "#b08a3e" },
      "geometry": { "type": "Polygon", "coordinates": [[
        [99.5,28.5],[101.5,28.5],[102.5,27.8],[103.0,26.8],[103.5,25.8],[103.0,24.8],[102.0,24.0],[101.5,23.0],[100.5,22.5],[99.5,22.0],[98.5,22.0],[97.5,22.5],[97.5,23.5],[98.0,24.5],[98.5,25.5],[98.5,26.5],[98.5,27.5],[99.5,28.5]
      ]] } },
    { "type": "Feature",
      "properties": { "id": "qing", "period": "yuanmingqing", "name_zh": "清", "name_en": "Qing Empire", "color": "#9c4a3a" },
      "geometry": { "type": "Polygon", "coordinates": [[
        [142.5,46.8],[142.0,48.0],[141.0,48.2],[140.0,48.7],[138.5,49.5],[136.5,50.3],[134.5,51.0],[132.5,51.8],[130.5,52.3],[128.5,52.8],[126.5,53.0],[124.0,53.2],[121.5,53.2],[119.0,53.0],[117.0,52.3],[115.0,51.5],[113.0,50.7],[111.0,49.8],[109.5,48.8],[108.0,47.8],[106.5,46.8],[105.0,46.0],[103.5,45.5],[102.0,45.3],[100.5,45.5],[99.0,45.8],[97.5,46.2],[96.0,46.5],[94.5,47.0],[93.0,47.3],[91.5,47.5],[90.0,47.5],[88.5,47.0],[87.0,46.3],[85.5,45.8],[84.0,45.2],[82.5,44.8],[81.0,44.3],[79.5,44.0],[78.0,43.8],[76.5,43.5],[75.0,43.0],[73.5,42.5],[72.0,41.8],[70.5,41.2],[69.0,40.5],[68.0,40.0],[67.5,39.5],[68.0,39.0],[69.5,38.5],[71.0,38.2],[72.5,38.0],[74.0,37.8],[75.5,37.5],[77.0,37.2],[78.5,36.8],[80.0,36.5],[81.5,36.2],[83.0,35.8],[84.5,35.3],[86.0,34.8],[87.5,34.3],[89.0,33.8],[90.5,33.2],[92.0,32.5],[93.5,31.8],[95.0,31.0],[96.0,30.3],[97.0,29.5],[97.5,28.8],[97.5,28.0],[97.0,27.2],[96.5,26.3],[95.8,25.5],[95.2,24.8],[94.8,24.2],[95.0,23.8],[96.0,23.5],[97.0,23.3],[98.0,23.2],[99.0,23.2],[100.0,23.3],[101.0,23.2],[102.0,22.8],[103.0,22.3],[104.0,21.8],[104.5,21.3],[105.0,21.0],[105.5,21.2],[106.0,21.5],[106.5,21.8],[107.0,22.0],[107.5,22.2],[108.0,22.0],[108.5,21.7],[109.0,21.5],[109.5,21.3],[110.0,21.3],[110.5,21.5],[111.0,21.8],[111.5,22.0],[112.0,22.0],[112.5,22.3],[113.0,22.5],[113.5,22.8],[114.0,23.0],[114.5,23.2],[115.0,23.5],[115.5,23.8],[116.0,24.0],[116.5,24.2],[117.0,24.5],[117.5,24.8],[118.0,25.2],[118.5,25.7],[119.0,26.3],[119.5,27.0],[120.0,27.8],[120.5,28.7],[121.0,29.5],[121.5,30.2],[122.0,30.8],[122.5,31.2],[123.0,31.8],[123.5,32.3],[124.0,32.8],[124.5,33.3],[125.0,33.8],[125.5,34.3],[126.0,34.8],[126.5,35.3],[127.0,35.8],[127.5,36.3],[128.0,36.8],[128.5,37.3],[129.0,37.8],[129.5,38.3],[130.0,38.8],[130.5,39.3],[131.0,39.8],[131.5,40.3],[132.0,40.8],[132.5,41.3],[133.0,41.8],[133.5,42.3],[134.0,42.8],[134.5,43.3],[135.0,43.8],[135.5,44.3],[136.0,44.8],[136.5,45.3],[137.0,45.8],[137.5,46.3],[138.0,46.8],[138.5,47.3],[139.0,47.8],[139.5,48.3],[140.0,48.8],[140.5,49.3],[141.0,49.8],[141.5,50.3],[142.0,50.8],[142.0,51.3],[141.5,51.8],[141.0,52.3],[140.5,52.8],[140.0,53.3],[140.5,53.8],[141.2,54.0],[142.0,53.8],[142.3,53.2],[142.2,52.5],[141.8,51.8],[141.2,51.0],[140.8,50.2],[141.0,49.3],[141.5,48.5],[142.5,47.5],[142.5,46.8]
      ]] } }
  ]
}

