{
  "type": "FeatureCollection",
  "features": [
    { "type": "Feature", "properties": { "id": "yangtze", "name_zh": "长江", "name_en": "Yangtze River", "kind": "major" },
      "geometry": { "type": "LineString", "coordinates": [[91.2,34.2],[93.5,33.5],[96.0,33.0],[98.5,32.0],[100.5,31.2],[102.0,30.0],[103.5,29.0],[104.0,28.6],[105.0,28.8],[106.0,29.5],[107.0,30.3],[108.5,30.8],[110.0,30.5],[111.5,30.3],[112.5,29.8],[114.0,30.2],[115.0,30.0],[116.5,30.0],[118.0,30.5],[119.0,31.5],[120.5,31.8],[121.5,31.4],[121.8,31.2]] } },
    { "type": "Feature", "properties": { "id": "yellow", "name_zh": "黄河", "name_en": "Yellow River", "kind": "major" },
      "geometry": { "type": "LineString", "coordinates": [[96.5,35.5],[99.0,36.2],[100.5,36.0],[102.5,35.8],[103.8,36.2],[104.8,36.5],[105.5,37.2],[106.5,38.3],[107.0,39.0],[108.0,39.8],[109.5,40.3],[111.0,40.4],[110.5,39.0],[111.0,38.0],[110.0,37.2],[110.5,36.2],[110.8,35.2],[111.5,34.9],[113.0,34.8],[114.5,34.9],[116.0,35.0],[117.0,35.6],[117.5,36.5],[118.0,37.5],[118.8,37.8],[119.2,37.8]] } },
    { "type": "Feature", "properties": { "id": "pearl", "name_zh": "珠江", "name_en": "Pearl River", "kind": "major" },
      "geometry": { "type": "LineString", "coordinates": [[106.0,23.8],[108.0,23.7],[109.5,23.4],[110.5,23.2],[111.5,23.2],[112.5,23.1],[113.2,23.1],[113.5,22.8]] } },
    { "type": "Feature", "properties": { "id": "heilong", "name_zh": "黑龙江", "name_en": "Heilong River (Amur)", "kind": "major" },
      "geometry": { "type": "LineString", "coordinates": [[115.0,49.5],[118.0,50.2],[121.0,50.0],[124.0,50.5],[126.5,50.2],[128.5,50.0],[130.5,48.5],[132.5,48.0],[135.0,48.5]] } },
    { "type": "Feature", "properties": { "id": "lancang", "name_zh": "澜沧江", "name_en": "Lancang River (Mekong)", "kind": "minor" },
      "geometry": { "type": "LineString", "coordinates": [[94.0,32.5],[97.0,31.0],[99.5,30.0],[100.5,28.5],[101.5,27.0],[102.0,25.5],[101.5,24.0],[100.5,22.5],[100.0,21.5]] } },
    { "type": "Feature", "properties": { "id": "yarlung", "name_zh": "雅鲁藏布江", "name_en": "Yarlung Tsangpo", "kind": "minor" },
      "geometry": { "type": "LineString", "coordinates": [[82.0,30.5],[84.0,29.5],[86.0,29.3],[88.0,29.2],[90.0,29.3],[92.0,29.4],[94.0,29.5],[95.0,29.5]] } },
    { "type": "Feature", "properties": { "id": "huai", "name_zh": "淮河", "name_en": "Huai River", "kind": "minor" },
      "geometry": { "type": "LineString", "coordinates": [[114.5,32.4],[115.5,32.7],[116.8,32.8],[117.8,32.9],[118.5,33.0],[119.2,33.0]] } }
  ]
}
