{
  "type": "FeatureCollection",
  "features": [
    { "type": "Feature", "properties": { "id": "silk-land", "periods": ["qinhan","suitang","songliaojin","yuanmingqing"], "name_zh": "陆上丝绸之路", "name_en": "Silk Road (Land)" },
      "geometry": { "type": "LineString", "coordinates": [[108.9,34.3],[107.6,34.4],[106.6,34.6],[105.5,35.5],[104.5,36.6],[103.8,37.2],[102.8,38.0],[101.5,38.2],[100.5,39.0],[99.5,39.7],[98.0,39.8],[96.5,39.5],[95.5,39.8],[94.7,40.1],[93.0,40.3],[91.0,40.5],[89.0,41.0],[87.0,42.0],[85.0,42.0],[83.0,42.3],[80.0,42.5],[77.0,42.8],[75.0,42.8],[73.0,43.0],[71.5,43.0],[70.0,43.5],[68.0,44.5],[67.0,45.5],[66.0,46.5],[64.5,47.5]] } },
    { "type": "Feature", "properties": { "id": "silk-sea", "periods": ["songliaojin","yuanmingqing"], "name_zh": "海上丝绸之路", "name_en": "Silk Road (Maritime)" },
      "geometry": { "type": "LineString", "coordinates": [[118.6,24.9],[117.5,23.5],[116.0,22.5],[114.0,22.0],[112.0,21.5],[110.0,20.5],[108.5,18.5],[108.0,16.0],[107.5,14.0],[106.5,12.0],[105.5,10.5],[104.5,9.0],[103.5,7.0],[102.5,5.0],[101.5,3.0],[100.5,1.5],[100.0,0.5]] } }
  ]
}
