{
  "type": "FeatureCollection",
  "features": [
    { "type": "Feature", "properties": { "id": "wall-qinhan", "period": "qinhan", "name_zh": "秦汉长城", "name_en": "Great Wall (Qin-Han)" },
      "geometry": { "type": "LineString", "coordinates": [[124.5,40.5],[122.0,41.5],[119.5,41.8],[116.5,41.5],[114.0,41.3],[112.0,40.8],[110.5,40.3],[108.5,40.2],[106.8,39.8],[105.5,39.5],[104.0,38.8],[103.0,38.0],[102.0,37.5],[100.5,37.2],[99.0,36.8],[97.5,36.5],[96.5,36.0],[95.8,35.6]] } },
    { "type": "Feature", "properties": { "id": "wall-ming", "period": "yuanmingqing", "name_zh": "明长城", "name_en": "Great Wall (Ming)" },
      "geometry": { "type": "LineString", "coordinates": [[124.0,40.5],[122.5,40.5],[120.5,40.8],[119.0,40.5],[117.5,40.3],[116.0,40.7],[114.5,40.8],[113.5,40.5],[112.5,40.5],[111.0,40.3],[110.5,39.5],[109.5,39.0],[108.5,38.5],[107.5,38.0],[106.5,37.5],[105.5,37.3],[104.5,37.2],[103.5,37.0],[102.5,37.0],[101.5,37.2],[100.5,37.3],[99.5,37.8],[98.5,38.5],[97.8,39.2],[97.5,39.8],[98.0,39.9],[98.3,39.8]] } }
  ]
}
